24967,IRIDIUM 36,1997,100.25,-1.0,-,86.39,Inactive,0,LEO,USA,USA,Unknown,Unknown,Delta,1 24967U 97056C   23259.55497734  .00000621  00000+0  20558-3 0  9991,2 24967  86.3910  81.5375 0001847  87.9911 272.1497 14.36392554360363,14.36392554,0.0001847,LEO
25042,IRIDIUM 39,1997,99.49,-1.0,-,86.39,Inactive,0,LEO,USA,USA,Unknown,Unknown,Delta,1 25042U 97069D   23260.08309779  .00000724  00000+0  19194-3 0  9999,2 25042  86.3906 124.8457 0016463 280.4437  79.4911 14.47350072356723,14.47350072,0.0016463,LEO
25043,IRIDIUM 38,1997,100.22,-1.0,-,86.4,Inactive,0,LEO,USA,USA,Unknown,Unknown,Delta,1 25043U 97069E   23259.23209269  .00000589  00000+0  19283-3 0  9996,2 25043  86.3990 142.1840 0004081  69.2335 290.9299 14.36873606354020,14.36873606,0.0004081,LEO
25077,IRIDIUM 42,1997,100.34,-1.0,-,86.4,Inactive,0,LEO,PRC,USA,Unknown,Unknown,Long March,1 25077U 97077A   23260.07587319  .00000365  00000+0  12075-3 0  9995,2 25077  86.4006 147.2163 0002661  76.0593 284.0899 14.35190068349492,14.35190068,0.0002661,LEO
25078,IRIDIUM 44,1997,100.07,-1.0,-,86.4,Inactive,0,LEO,PRC,USA,Unknown,Unknown,Long March,1 25078U 97077B   23259.71924155  .00000546  00000+0  17080-3 0  9990,2 25078  86.3959 131.0219 0002154  31.8040 328.3288 14.38973104351732,14.38973104,0.0002154,LEO
25104,IRIDIUM 45,1997,96.33,-1.0,-,86.38,Inactive,0,LEO,USA,USA,Unknown,Unknown,Delta,1 25104U 97082A   23260.31164173  .00018735  00000+0  12212-2 0  9990,2 25104  86.3821 349.9821 0183328 149.1872 212.0277 14.94919316356085,14.94919316,0.0183328,LEO
25105,IRIDIUM 24,1997,99.95,-1.0,-,86.4,Inactive,0,LEO,USA,USA,Unknown,Unknown,Delta,1 25105U 97082B   23260.00518470  .00000718  00000+0  21839-3 0  9998,2 25105  86.3974 350.9497 0012598  36.8859 323.3204 14.40724886351395,14.40724886,0.0012598,LEO
25262,IRIDIUM 51,1998,95.89,-1.0,-,86.4,Inactive,0,LEO,PRC,USA,Unknown,Unknown,Long March,1 25262U 98018A   23260.00817949  .00014933  00000+0  83599-3 0  9990,2 25262  86.3988   0.7226 0169845 106.4207 255.5771 15.01750990350367,15.0175099,0.0169845,LEO
